      2.10          N: GNSS NAV DATA                        RINEX VERSION / TYPE
fic2rin                                 04/15/2023 00:17:59 PGM / RUN BY / DATE
                                                            END OF HEADER
8  23  4 14  1 59 28.0 -.117640942335D-03 -.181898940355D-11  .000000000000D+00
     .110000000000D+03  .746250000000D+02  .437803950578D-08  .474037411755D+00
     .393204391003D-05  .845583598129D-02  .827014446259D-05  .515368694305D+04
     .439168000000D+06  .121071934700D-06  .205315426945D+01  .104308128357D-06
     .959084522611D+00  .219968750000D+03  .252763595773D+00 -.806390732268D-08
    -.147863301957D-09  .100000000000D+01  .225700000000D+04  .000000000000D+00
     .240000000000D+01  .000000000000D+00  .512227416039D-08  .110000000000D+03
     .432000000000D+06  .400000000000D+01
24 23  4 14 16  0  0.0 -.151559710503D-03 -.146656020661D-10  .000000000000D+00
     .310000000000D+02  .177187500000D+02  .536486632536D-08 -.364604957134D+00
     .109523534775D-05  .137949479977D-01  .917539000511D-05  .515365424156D+04
     .489600000000D+06  .186264514923D-08 -.102711920147D+00  .150874257088D-06
     .934360630682D+00  .193562500000D+03  .890296549202D+00 -.852321216886D-08
     .401445293236D-09  .100000000000D+01  .225700000000D+04  .000000000000D+00
     .240000000000D+01  .000000000000D+00  .232830643654D-08  .310000000000D+02
     .482400000000D+06  .400000000000D+01
16 23  4 14 16  0  0.0 -.508855562657D-03  .272848410532D-11  .000000000000D+00
     .560000000000D+02  .130937500000D+02  .470769609444D-08  .241391936214D+01
     .473111867905D-06  .133811520645D-01  .687129795551D-05  .515357877922D+04
     .489600000000D+06 -.128522515297D-06  .111990030558D+01 -.182539224625D-06
     .965445286031D+00  .250656250000D+03  .784527583774D+00 -.788282835144D-08
    -.324299222650D-09  .100000000000D+01  .225700000000D+04  .000000000000D+00
     .240000000000D+01  .000000000000D+00 -.102445483208D-07  .560000000000D+02
     .482400000000D+06  .400000000000D+01
9  23  4 14 16  0  0.0 -.180114991963D-03  .795807864051D-11  .000000000000D+00
     .820000000000D+02 -.908750000000D+02  .436339603867D-08  .192220371623D+01
    -.463426113129D-05  .235229532700D-02  .104196369648D-04  .515363959885D+04
     .489600000000D+06  .484287738800D-07 -.108442906696D+01  .707805156708D-07
     .955673143942D+00  .175343750000D+03  .196815886364D+01 -.787782814316D-08
     .214294640518D-09  .100000000000D+01  .225700000000D+04  .000000000000D+00
     .240000000000D+01  .000000000000D+00  .139698386192D-08  .820000000000D+02
     .482400000000D+06  .400000000000D+01
30 23  4 14 16  0  0.0 -.522388145328D-03  .181898940355D-11  .000000000000D+00
     .420000000000D+02  .220625000000D+02  .525200448135D-08 -.140533635532D+01
     .104308128357D-05  .636904058047D-02  .805966556072D-05  .515360518646D+04
     .489600000000D+06  .931322574615D-07 -.605862841191D-02 -.409781932831D-07
     .935935606823D+00  .205406250000D+03 -.261316735039D+01 -.823105714228D-08
     .506449667090D-09  .100000000000D+01  .225700000000D+04  .000000000000D+00
     .240000000000D+01  .000000000000D+00  .372529029846D-08  .420000000000D+02
     .482400000000D+06  .400000000000D+01
21 23  4 14 16  0  0.0  .154220499098D-03 -.113686837722D-12  .000000000000D+00
     .280000000000D+02  .629062500000D+02  .441839832974D-08  .149558564416D+01
     .320933759212D-05  .247538634576D-01  .420771539211D-05  .515363478470D+04
     .489600000000D+06  .519677996635D-06  .304074626560D+01  .189989805222D-06
     .961908788368D+00  .286562500000D+03 -.777417913091D+00 -.799819029959D-08
    -.125362364703D-09  .100000000000D+01  .225700000000D+04  .000000000000D+00
     .340000000000D+01  .000000000000D+00 -.102445483208D-07  .280000000000D+02
     .482400000000D+06  .400000000000D+01
25 23  4 14 16  0  0.0  .435559079051D-03  .284217094304D-11  .000000000000D+00
     .340000000000D+02  .153437500000D+02  .511092717635D-08 -.218681262699D+01
     .787898898125D-06  .111645474099D-01  .592879951000D-05  .515374289513D+04
     .489600000000D+06  .175088644028D-06  .101975496841D+01 -.186264514923D-07
     .953465068059D+00  .260406250000D+03  .104624279722D+01 -.815569686037D-08
    -.108933108930D-09  .100000000000D+01  .225700000000D+04  .000000000000D+00
     .240000000000D+01  .000000000000D+00  .558793544769D-08  .340000000000D+02
     .482400000000D+06  .400000000000D+01
29 23  4 14 16  0  0.0 -.595494639128D-03 -.159161572810D-11  .000000000000D+00
     .900000000000D+02  .388125000000D+02  .406945522343D-08  .169959768805D+01
     .207871198654D-05  .240486371331D-02  .913813710213D-05  .515378830910D+04
     .489600000000D+06  .149011611938D-07  .215513304089D+01 -.223517417908D-07
     .976892088962D+00  .206281250000D+03  .235299148372D+01 -.780925385820D-08
    -.380730144653D-09  .100000000000D+01  .225700000000D+04  .000000000000D+00
     .240000000000D+01  .000000000000D+00 -.102445483208D-07  .900000000000D+02
     .482400000000D+06  .400000000000D+01
15 23  4 14 16  0  0.0  .305864959955D-04  .341060513165D-11  .000000000000D+00
     .100000000000D+03 -.899062500000D+02  .512057043517D-08  .592307522729D+00
    -.465102493763D-05  .147950422252D-01  .869110226631D-05  .515370693588D+04
     .489600000000D+06 -.227242708206D-06 -.120170606429D+01  .186264514923D-08
     .931900630065D+00  .201687500000D+03  .118897371478D+01 -.852178353792D-08
    -.135719938995D-10  .100000000000D+01  .225700000000D+04  .000000000000D+00
     .240000000000D+01  .000000000000D+00 -.107102096081D-07  .100000000000D+03
     .482400000000D+06  .400000000000D+01
20 23  4 14 16  0  0.0  .439074356109D-03 -.216004991671D-11  .000000000000D+00
     .720000000000D+02 -.413750000000D+02  .496306387439D-08  .169421993975D+00
    -.212155282497D-05  .425632635597D-02  .251084566116D-05  .515379511642D+04
     .489600000000D+06  .104308128357D-06 -.227717381005D+01  .987201929092D-07
     .947810346940D+00  .326281250000D+03 -.288490599575D+01 -.865964642332D-08
     .342871424828D-10  .100000000000D+01  .225700000000D+04  .000000000000D+00
     .240000000000D+01  .000000000000D+00 -.838190317154D-08  .720000000000D+02
     .482400000000D+06  .400000000000D+01
26 23  4 14 16  0  0.0  .241738278419D-03 -.227373675443D-12  .000000000000D+00
     .700000000000D+02  .182812500000D+02  .551165815411D-08 -.292280008272D+01
     .832602381706D-06  .789430108853D-02  .624172389507D-05  .515366776466D+04
     .489600000000D+06 -.158324837685D-06  .964857388995D+00 -.162050127983D-06
     .934286699191D+00  .246625000000D+03  .463674225893D+00 -.840249285470D-08
    -.234652631367D-09  .100000000000D+01  .225700000000D+04  .000000000000D+00
     .240000000000D+01  .000000000000D+00  .698491930962D-08  .700000000000D+02
     .482400000000D+06  .400000000000D+01
19 23  4 14 16  0  0.0  .303595326841D-03  .511590769747D-11  .000000000000D+00
     .550000000000D+02  .740312500000D+02  .402659629533D-08 -.260897866483D+01
     .384822487831D-05  .928440084681D-02  .998191535473D-05  .515362050438D+04
     .489600000000D+06 -.428408384323D-07  .218573248874D+01  .126659870148D-06
     .973710094385D+00  .192812500000D+03  .227103612115D+01 -.765781897890D-08
    -.322870591713D-09  .100000000000D+01  .225700000000D+04  .000000000000D+00
     .240000000000D+01  .000000000000D+00 -.153668224812D-07  .550000000000D+02
     .482400000000D+06  .400000000000D+01
17 23  4 14 16  0  0.0  .710543245077D-03  .181898940355D-11  .000000000000D+00
     .600000000000D+02  .584062500000D+02  .405124017899D-08  .150347832712D+01
     .268593430519D-05  .135180139914D-01  .959262251854D-05  .515375023270D+04
     .489600000000D+06  .121071934700D-06  .214114943999D+01 -.344589352608D-06
     .974650819467D+00  .198875000000D+03 -.141121339902D+01 -.775818030221D-08
    -.363586573412D-09  .100000000000D+01  .225700000000D+04  .000000000000D+00
     .240000000000D+01  .000000000000D+00 -.111758708954D-07  .600000000000D+02
     .482400000000D+06  .400000000000D+01
18 23  4 14 16  0  0.0 -.223965384066D-03 -.165982783074D-10  .000000000000D+00
     .171000000000D+03  .588750000000D+02  .410445668138D-08 -.502029999565D+00
     .290572643280D-05  .307411386166D-02  .564195215702D-05  .515368325615D+04
     .489600000000D+06  .689178705215D-07 -.313842371848D+01 -.111758708954D-07
     .973924625470D+00  .278906250000D+03  .313919735199D+01 -.804890669784D-08
     .421446126351D-10  .100000000000D+01  .225700000000D+04  .000000000000D+00
     .240000000000D+01  .000000000000D+00 -.838190317154D-08  .171000000000D+03
     .482400000000D+06  .400000000000D+01
11 23  4 14 16  0  0.0 -.162382610142D-03 -.126192389871D-10  .000000000000D+00
     .187000000000D+03  .694062500000D+02  .440125475850D-08  .908564579259D+00
     .361353158951D-05  .757678528316D-03  .503100454807D-05  .515373400307D+04
     .489600000000D+06 -.149011611938D-07 -.310609119694D+01  .372529029846D-08
     .965432567422D+00  .285218750000D+03 -.279320177344D+01 -.825712965688D-08
     .129648257513D-09  .100000000000D+01  .225700000000D+04  .000000000000D+00
     .240000000000D+01  .000000000000D+00 -.884756445885D-08  .699000000000D+03
     .482400000000D+06  .400000000000D+01
14 23  4 14 16  0  0.0  .250092707574D-04  .115960574476D-10  .000000000000D+00
     .960000000000D+02  .189062500000D+02  .517021536022D-08 -.200582088645D+01
     .916421413422D-06  .294617540203D-02  .670179724693D-05  .515366726494D+04
     .489600000000D+06  .502914190292D-07  .106359023633D+01 -.987201929092D-07
     .949120245251D+00  .245343750000D+03 -.305965046606D+01 -.828105922507D-08
    -.277154401736D-09  .100000000000D+01  .225700000000D+04  .000000000000D+00
     .240000000000D+01  .000000000000D+00 -.791624188423D-08  .864000000000D+03
     .482400000000D+06  .400000000000D+01
